CCSDS_OMM_VERS = 2.0
CREATION_DATE  = 
ORIGINATOR     = 

OBJECT_NAME    = STARLINK-35760
OBJECT_ID      = 2025-247K
CENTER_NAME    = EARTH
REF_FRAME      = TEME
TIME_SYSTEM    = UTC
MEAN_ELEMENT_THEORY = SGP/SGP4

EPOCH          = 2025-11-19T14:00:01.999872
MEAN_MOTION    = 15.49239307
ECCENTRICITY   = .00013216
INCLINATION    = 53.1594
RA_OF_ASC_NODE = 346.8472
ARG_OF_PERICENTER = 67.4449
MEAN_ANOMALY   = 160.6680

EPHEMERIS_TYPE = 0
CLASSIFICATION_TYPE = U
NORAD_CAT_ID   = 66274
ELEMENT_SET_NO = 999
REV_AT_EPOCH   = 389
BSTAR          = .1780234E-2
MEAN_MOTION_DOT = .99587E-3
MEAN_MOTION_DDOT = 0

CCSDS_OMM_VERS = 2.0
CREATION_DATE  = 
ORIGINATOR     = 

OBJECT_NAME    = STARLINK-35752
OBJECT_ID      = 2025-247L
CENTER_NAME    = EARTH
REF_FRAME      = TEME
TIME_SYSTEM    = UTC
MEAN_ELEMENT_THEORY = SGP/SGP4

EPOCH          = 2025-11-19T14:00:01.999872
MEAN_MOTION    = 15.49240562
ECCENTRICITY   = .00012255
INCLINATION    = 53.1594
RA_OF_ASC_NODE = 346.8433
ARG_OF_PERICENTER = 64.9846
MEAN_ANOMALY   = 165.0434

EPHEMERIS_TYPE = 0
CLASSIFICATION_TYPE = U
NORAD_CAT_ID   = 66275
ELEMENT_SET_NO = 999
REV_AT_EPOCH   = 389
BSTAR          = .17687559E-2
MEAN_MOTION_DOT = .98938E-3
MEAN_MOTION_DDOT = 0

CCSDS_OMM_VERS = 2.0
CREATION_DATE  = 
ORIGINATOR     = 

OBJECT_NAME    = STARLINK-35742
OBJECT_ID      = 2025-247M
CENTER_NAME    = EARTH
REF_FRAME      = TEME
TIME_SYSTEM    = UTC
MEAN_ELEMENT_THEORY = SGP/SGP4

EPOCH          = 2025-11-19T14:00:01.999872
MEAN_MOTION    = 15.49237600
ECCENTRICITY   = .00013154
INCLINATION    = 53.1595
RA_OF_ASC_NODE = 346.8392
ARG_OF_PERICENTER = 65.6869
MEAN_ANOMALY   = 166.2620

EPHEMERIS_TYPE = 0
CLASSIFICATION_TYPE = U
NORAD_CAT_ID   = 66276
ELEMENT_SET_NO = 999
REV_AT_EPOCH   = 421
BSTAR          = .18008885E-2
MEAN_MOTION_DOT = .100757E-2
MEAN_MOTION_DDOT = 0

CCSDS_OMM_VERS = 2.0
CREATION_DATE  = 
ORIGINATOR     = 

OBJECT_NAME    = STARLINK-35708
OBJECT_ID      = 2025-247N
CENTER_NAME    = EARTH
REF_FRAME      = TEME
TIME_SYSTEM    = UTC
MEAN_ELEMENT_THEORY = SGP/SGP4

EPOCH          = 2025-11-19T14:00:01.999872
MEAN_MOTION    = 15.49239974
ECCENTRICITY   = .00012855
INCLINATION    = 53.1594
RA_OF_ASC_NODE = 346.8348
ARG_OF_PERICENTER = 68.2586
MEAN_ANOMALY   = 165.6038

EPHEMERIS_TYPE = 0
CLASSIFICATION_TYPE = U
NORAD_CAT_ID   = 66277
ELEMENT_SET_NO = 999
REV_AT_EPOCH   = 421
BSTAR          = .17705555E-2
MEAN_MOTION_DOT = .99038E-3
MEAN_MOTION_DDOT = 0

CCSDS_OMM_VERS = 2.0
CREATION_DATE  = 
ORIGINATOR     = 

OBJECT_NAME    = STARLINK-35713
OBJECT_ID      = 2025-247P
CENTER_NAME    = EARTH
REF_FRAME      = TEME
TIME_SYSTEM    = UTC
MEAN_ELEMENT_THEORY = SGP/SGP4

EPOCH          = 2025-11-19T14:00:01.999872
MEAN_MOTION    = 15.49232836
ECCENTRICITY   = .00012197
INCLINATION    = 53.1595
RA_OF_ASC_NODE = 346.8268
ARG_OF_PERICENTER = 65.8925
MEAN_ANOMALY   = 171.8091

EPHEMERIS_TYPE = 0
CLASSIFICATION_TYPE = U
NORAD_CAT_ID   = 66278
ELEMENT_SET_NO = 999
REV_AT_EPOCH   = 421
BSTAR          = .19005075E-2
MEAN_MOTION_DOT = .106415E-2
MEAN_MOTION_DDOT = 0

CCSDS_OMM_VERS = 2.0
CREATION_DATE  = 
ORIGINATOR     = 

OBJECT_NAME    = STARLINK-35724
OBJECT_ID      = 2025-247Q
CENTER_NAME    = EARTH
REF_FRAME      = TEME
TIME_SYSTEM    = UTC
MEAN_ELEMENT_THEORY = SGP/SGP4

EPOCH          = 2025-11-19T14:00:01.999872
MEAN_MOTION    = 15.49241148
ECCENTRICITY   = .00013808
INCLINATION    = 53.1593
RA_OF_ASC_NODE = 346.8227
ARG_OF_PERICENTER = 64.1596
MEAN_ANOMALY   = 175.4520

EPHEMERIS_TYPE = 0
CLASSIFICATION_TYPE = U
NORAD_CAT_ID   = 66279
ELEMENT_SET_NO = 999
REV_AT_EPOCH   = 384
BSTAR          = .17581788E-2
MEAN_MOTION_DOT = .98338E-3
MEAN_MOTION_DDOT = 0

CCSDS_OMM_VERS = 2.0
CREATION_DATE  = 
ORIGINATOR     = 

OBJECT_NAME    = STARLINK-35726
OBJECT_ID      = 2025-247R
CENTER_NAME    = EARTH
REF_FRAME      = TEME
TIME_SYSTEM    = UTC
MEAN_ELEMENT_THEORY = SGP/SGP4

EPOCH          = 2025-11-19T14:00:01.999872
MEAN_MOTION    = 15.49237403
ECCENTRICITY   = .00013391
INCLINATION    = 53.1593
RA_OF_ASC_NODE = 346.8308
ARG_OF_PERICENTER = 75.2278
MEAN_ANOMALY   = 160.5516

EPHEMERIS_TYPE = 0
CLASSIFICATION_TYPE = U
NORAD_CAT_ID   = 66280
ELEMENT_SET_NO = 999
REV_AT_EPOCH   = 389
BSTAR          = .18377657E-2
MEAN_MOTION_DOT = .102856E-2
MEAN_MOTION_DDOT = 0

CCSDS_OMM_VERS = 2.0
CREATION_DATE  = 
ORIGINATOR     = 

OBJECT_NAME    = STARLINK-35727
OBJECT_ID      = 2025-247S
CENTER_NAME    = EARTH
REF_FRAME      = TEME
TIME_SYSTEM    = UTC
MEAN_ELEMENT_THEORY = SGP/SGP4

EPOCH          = 2025-11-19T14:00:01.999872
MEAN_MOTION    = 15.49239958
ECCENTRICITY   = .00012096
INCLINATION    = 53.1594
RA_OF_ASC_NODE = 346.8188
ARG_OF_PERICENTER = 66.4737
MEAN_ANOMALY   = 175.0563

EPHEMERIS_TYPE = 0
CLASSIFICATION_TYPE = U
NORAD_CAT_ID   = 66281
ELEMENT_SET_NO = 999
REV_AT_EPOCH   = 389
BSTAR          = .17751521E-2
MEAN_MOTION_DOT = .993E-3
MEAN_MOTION_DDOT = 0

CCSDS_OMM_VERS = 2.0
CREATION_DATE  = 
ORIGINATOR     = 

OBJECT_NAME    = STARLINK-35776
OBJECT_ID      = 2025-247T
CENTER_NAME    = EARTH
REF_FRAME      = TEME
TIME_SYSTEM    = UTC
MEAN_ELEMENT_THEORY = SGP/SGP4

EPOCH          = 2025-11-19T14:00:01.999872
MEAN_MOTION    = 15.49238999
ECCENTRICITY   = .00012647
INCLINATION    = 53.1595
RA_OF_ASC_NODE = 346.8145
ARG_OF_PERICENTER = 63.1614
MEAN_ANOMALY   = 180.2869

EPHEMERIS_TYPE = 0
CLASSIFICATION_TYPE = U
NORAD_CAT_ID   = 66282
ELEMENT_SET_NO = 999
REV_AT_EPOCH   = 389
BSTAR          = .17848545E-2
MEAN_MOTION_DOT = .99849E-3
MEAN_MOTION_DDOT = 0

CCSDS_OMM_VERS = 2.0
CREATION_DATE  = 
ORIGINATOR     = 

OBJECT_NAME    = STARLINK-35774
OBJECT_ID      = 2025-247U
CENTER_NAME    = EARTH
REF_FRAME      = TEME
TIME_SYSTEM    = UTC
MEAN_ELEMENT_THEORY = SGP/SGP4

EPOCH          = 2025-11-19T14:00:01.999872
MEAN_MOTION    = 15.49240102
ECCENTRICITY   = .00012079
INCLINATION    = 53.1594
RA_OF_ASC_NODE = 346.8111
ARG_OF_PERICENTER = 58.6535
MEAN_ANOMALY   = 186.7101

EPHEMERIS_TYPE = 0
CLASSIFICATION_TYPE = U
NORAD_CAT_ID   = 66283
ELEMENT_SET_NO = 999
REV_AT_EPOCH   = 389
BSTAR          = .1771829E-2
MEAN_MOTION_DOT = .99111E-3
MEAN_MOTION_DDOT = 0

CCSDS_OMM_VERS = 2.0
CREATION_DATE  = 
ORIGINATOR     = 

OBJECT_NAME    = STARLINK-35830
OBJECT_ID      = 2025-247V
CENTER_NAME    = EARTH
REF_FRAME      = TEME
TIME_SYSTEM    = UTC
MEAN_ELEMENT_THEORY = SGP/SGP4

EPOCH          = 2025-11-19T14:00:01.999872
MEAN_MOTION    = 15.49239972
ECCENTRICITY   = .00012807
INCLINATION    = 53.1595
RA_OF_ASC_NODE = 346.8067
ARG_OF_PERICENTER = 65.1165
MEAN_ANOMALY   = 182.1640

EPHEMERIS_TYPE = 0
CLASSIFICATION_TYPE = U
NORAD_CAT_ID   = 66284
ELEMENT_SET_NO = 999
REV_AT_EPOCH   = 389
BSTAR          = .17745297E-2
MEAN_MOTION_DOT = .99265E-3
MEAN_MOTION_DDOT = 0

CCSDS_OMM_VERS = 2.0
CREATION_DATE  = 
ORIGINATOR     = 

OBJECT_NAME    = STARLINK-35819
OBJECT_ID      = 2025-247W
CENTER_NAME    = EARTH
REF_FRAME      = TEME
TIME_SYSTEM    = UTC
MEAN_ELEMENT_THEORY = SGP/SGP4

EPOCH          = 2025-11-19T14:00:01.999872
MEAN_MOTION    = 15.49239585
ECCENTRICITY   = .00013272
INCLINATION    = 53.1596
RA_OF_ASC_NODE = 346.8024
ARG_OF_PERICENTER = 67.0091
MEAN_ANOMALY   = 182.1894

EPHEMERIS_TYPE = 0
CLASSIFICATION_TYPE = U
NORAD_CAT_ID   = 66285
ELEMENT_SET_NO = 999
REV_AT_EPOCH   = 384
BSTAR          = .17736558E-2
MEAN_MOTION_DOT = .99213E-3
MEAN_MOTION_DDOT = 0

