STARLINK-35760          
1 66274U 25247K   25323.58335648  .00099587  00000+0  17802-2 0  9999
2 66274  53.1594 346.8472 0001321  67.4449 160.6680 15.49239307  3899
STARLINK-35752          
1 66275U 25247L   25323.58335648  .00098938  00000+0  17688-2 0  9991
2 66275  53.1594 346.8433 0001225  64.9846 165.0434 15.49240562  3894
STARLINK-35742          
1 66276U 25247M   25323.58335648  .00100757  00000+0  18009-2 0  9993
2 66276  53.1595 346.8392 0001315  65.6869 166.2620 15.49237600  4219
STARLINK-35708          
1 66277U 25247N   25323.58335648  .00099038  00000+0  17706-2 0  9996
2 66277  53.1594 346.8348 0001285  68.2586 165.6038 15.49239974  4213
STARLINK-35713          
1 66278U 25247P   25323.58335648  .00106415  00000+0  19005-2 0  9999
2 66278  53.1595 346.8268 0001219  65.8925 171.8091 15.49232836  4211
STARLINK-35724          
1 66279U 25247Q   25323.58335648  .00098338  00000+0  17582-2 0  9992
2 66279  53.1593 346.8227 0001380  64.1596 175.4520 15.49241148  3841
STARLINK-35726          
1 66280U 25247R   25323.58335648  .00102856  00000+0  18378-2 0  9999
2 66280  53.1593 346.8308 0001339  75.2278 160.5516 15.49237403  3891
STARLINK-35727          
1 66281U 25247S   25323.58335648  .00099300  00000+0  17752-2 0  9994
2 66281  53.1594 346.8188 0001209  66.4737 175.0563 15.49239958  3897
STARLINK-35776          
1 66282U 25247T   25323.58335648  .00099849  00000+0  17849-2 0  9990
2 66282  53.1595 346.8145 0001264  63.1614 180.2869 15.49238999  3892
STARLINK-35774          
1 66283U 25247U   25323.58335648  .00099111  00000+0  17718-2 0  9998
2 66283  53.1594 346.8111 0001207  58.6535 186.7101 15.49240102  3892
STARLINK-35830          
1 66284U 25247V   25323.58335648  .00099265  00000+0  17745-2 0  9999
2 66284  53.1595 346.8067 0001280  65.1165 182.1640 15.49239972  3898
STARLINK-35819          
1 66285U 25247W   25323.58335648  .00099213  00000+0  17737-2 0  9994
2 66285  53.1596 346.8024 0001327  67.0091 182.1894 15.49239585  3840
